{
  "norad_id": 43587,
  "name": "TELKOM 4 (MERAH PUTIH)",
  "history": [
    {
      "epoch": "2026-03-28T21:50:38.837472Z",
      "apogee_km": 35796.73790210143,
      "perigee_km": 35776.27877289077,
      "latitude_deg": 0.040228186250070165,
      "longitude_deg": 107.9979119512263,
      "height_km": 35794.723895220886,
      "semi_major_axis_km": 42164.645337496106,
      "eccentricity": 0.00024261,
      "inclination_deg": 0.0185,
      "raan_deg": 191.7888,
      "arg_perigee_deg": 219.1398,
      "mean_anomaly_deg": 211.046,
      "mean_motion_rev_day": 1.00272094
    },
    {
      "epoch": "2026-03-29T01:34:03.480384Z",
      "apogee_km": 35796.89460085275,
      "perigee_km": 35776.132726865864,
      "latitude_deg": 0.025855144493279258,
      "longitude_deg": 107.98388438377886,
      "height_km": 35786.638283595355,
      "semi_major_axis_km": 42164.650663859305,
      "eccentricity": 0.0002462,
      "inclination_deg": 0.0093,
      "raan_deg": 197.1644,
      "arg_perigee_deg": 214.6334,
      "mean_anomaly_deg": 266.1821,
      "mean_motion_rev_day": 1.00272075
    },
    {
      "epoch": "2026-03-29T23:48:54.123840Z",
      "apogee_km": 35797.257636933326,
      "perigee_km": 35775.99900555366,
      "latitude_deg": 0.042530315145981275,
      "longitude_deg": 107.98696508412067,
      "height_km": 35791.39086535879,
      "semi_major_axis_km": 42164.765321243496,
      "eccentricity": 0.00025209,
      "inclination_deg": 0.0185,
      "raan_deg": 188.1193,
      "arg_perigee_deg": 224.5921,
      "mean_anomaly_deg": 239.8943,
      "mean_motion_rev_day": 1.00271666
    },
    {
      "epoch": "2026-03-30T11:23:38.566752Z",
      "apogee_km": 35797.521314825135,
      "perigee_km": 35775.843537861656,
      "latitude_deg": -0.039488926006328424,
      "longitude_deg": 108.03431255674292,
      "height_km": 35779.791769540134,
      "semi_major_axis_km": 42164.8194263434,
      "eccentricity": 0.00025706,
      "inclination_deg": 0.0135,
      "raan_deg": 191.3856,
      "arg_perigee_deg": 221.8512,
      "mean_anomaly_deg": 53.5291,
      "mean_motion_rev_day": 1.00271473
    }
  ]
}